GAOFEN-6                
1 43484U 18048A   26115.82461312  .00000718  00000+0  10985-3 0  9997
2 43484  97.7788 180.4186 0011855 352.1376   7.9646 14.76568094425661
GAOFEN-11 01            
1 43585U 18063A   26115.83912565  .00013468  00000+0  21161-3 0  9992
2 43585  97.1329 182.9158 0004856 148.1644 211.9905 15.53743829432219
ICESAT-2                
1 43613U 18070A   26115.77177152  .00003001  00000+0  10879-3 0  9996
2 43613  92.0020 276.8404 0002285  58.2118 301.9353 15.28307483424459
HYSIS                   
1 43719U 18096A   26115.83469324  .00000963  00000+0  13843-3 0  9991
2 43719  97.9863 182.9851 0000842  76.0907 284.0398 14.78666380399683
KAZSTSAT                
1 43783U 18099AB  26115.65790645  .00000795  00000+0  68816-4 0  9992
2 43783  97.4371 149.9610 0003913 197.2393 162.8698 14.99773520403439
SAUDISAT 5A             
1 43831U 18102A   26115.83253366  .00005644  00000+0  21229-3 0  9999
2 43831  97.3108 178.4330 0008533 327.8089  32.2628 15.27502105407687
SAUDISAT 5B             
1 43833U 18102C   26115.86067733  .00005512  00000+0  20559-3 0  9994
2 43833  97.3209 181.4356 0009304 329.7994  30.2708 15.27787409407809
GAOFEN-10R              
1 44622U 19066A   26115.86303787  .00001075  00000+0  13926-3 0  9993
2 44622  98.0463  69.0774 0004628 320.2902  39.7972 14.82938911354624
CARTOSAT-3              
1 44804U 19081A   26115.79571955  .00002246  00000+0  10961-3 0  9995
2 44804  97.4337 178.4931 0011275 340.7990  19.2818 15.19276850355518
GAOFEN-12 01            
1 44819U 19082A   26115.83346589  .00000344  00000+0  51698-4 0  9990
2 44819  97.8126 123.5939 0001414 128.2182 231.9157 14.80414073346347
CSG-1                   
1 44873U 19092A   26115.79820691  .00000381  00000+0  54372-4 0  9990
2 44873  97.8887 300.1584 0001300  93.6778 266.4584 14.82153394343713
NEMO-HD                 
1 46277U 20061F   26115.83018985  .00010614  00000+0  23854-3 0  9998
2 46277  97.1961 178.3428 0001421 132.6546 227.4822 15.43520342313901
SENTINEL-6A             
1 46984U 20086A   26115.77462250 -.00000059  00000+0  67827-5 0  9994
2 46984  66.0412 243.9120 0007786 270.3074  89.7049 12.80930889253616
GAOFEN-12 02            
1 48079U 21026A   26115.83897928  .00000346  00000+0  52414-4 0  9990
2 48079  97.9927 114.2368 0005981  54.7147 305.4624 14.80252319274012
PLEIADES NEO 3          
1 48268U 21034A   26114.63236059  .00000686  00000+0  93708-4 0  9996
2 48268  97.8934 190.1682 0001362 103.4295 256.7070 14.81679396269720
PLEIADES NEO 4          
1 49070U 21073E   26115.61157667 -.00000542  00000+0 -62253-4 0  9991
2 49070  97.8923 191.1293 0001276  93.1075 267.0284 14.81673986253582
LANDSAT 9               
1 49260U 21088A   26115.80193397  .00000337  00000+0  84818-4 0  9990
2 49260  98.1873 186.8084 0001239 105.1694 254.9641 14.57120250243372
