[{"OBJECT_NAME":"GAOFEN-6","OBJECT_ID":"2018-048A","EPOCH":"2026-04-25T19:47:26.573568","MEAN_MOTION":14.76568094,"ECCENTRICITY":0.0011855,"INCLINATION":97.7788,"RA_OF_ASC_NODE":180.4186,"ARG_OF_PERICENTER":352.1376,"MEAN_ANOMALY":7.9646,"EPHEMERIS_TYPE":0,"CLASSIFICATION_TYPE":"U","NORAD_CAT_ID":43484,"ELEMENT_SET_NO":999,"REV_AT_EPOCH":42566,"BSTAR":0.00010985,"MEAN_MOTION_DOT":7.18e-6,"MEAN_MOTION_DDOT":0},{"OBJECT_NAME":"GAOFEN-11 01","OBJECT_ID":"2018-063A","EPOCH":"2026-04-25T20:08:20.456160","MEAN_MOTION":15.53743829,"ECCENTRICITY":0.0004856,"INCLINATION":97.1329,"RA_OF_ASC_NODE":182.9158,"ARG_OF_PERICENTER":148.1644,"MEAN_ANOMALY":211.9905,"EPHEMERIS_TYPE":0,"CLASSIFICATION_TYPE":"U","NORAD_CAT_ID":43585,"ELEMENT_SET_NO":999,"REV_AT_EPOCH":43221,"BSTAR":0.00021161,"MEAN_MOTION_DOT":0.00013468,"MEAN_MOTION_DDOT":0},{"OBJECT_NAME":"ICESAT-2","OBJECT_ID":"2018-070A","EPOCH":"2026-04-25T18:31:21.059328","MEAN_MOTION":15.28307483,"ECCENTRICITY":0.0002285,"INCLINATION":92.002,"RA_OF_ASC_NODE":276.8404,"ARG_OF_PERICENTER":58.2118,"MEAN_ANOMALY":301.9353,"EPHEMERIS_TYPE":0,"CLASSIFICATION_TYPE":"U","NORAD_CAT_ID":43613,"ELEMENT_SET_NO":999,"REV_AT_EPOCH":42445,"BSTAR":0.00010879,"MEAN_MOTION_DOT":3.001e-5,"MEAN_MOTION_DDOT":0},{"OBJECT_NAME":"HYSIS","OBJECT_ID":"2018-096A","EPOCH":"2026-04-25T20:01:57.495936","MEAN_MOTION":14.7866638,"ECCENTRICITY":8.42e-5,"INCLINATION":97.9863,"RA_OF_ASC_NODE":182.9851,"ARG_OF_PERICENTER":76.0907,"MEAN_ANOMALY":284.0398,"EPHEMERIS_TYPE":0,"CLASSIFICATION_TYPE":"U","NORAD_CAT_ID":43719,"ELEMENT_SET_NO":999,"REV_AT_EPOCH":39968,"BSTAR":0.00013843,"MEAN_MOTION_DOT":9.63e-6,"MEAN_MOTION_DDOT":0},{"OBJECT_NAME":"KAZSTSAT","OBJECT_ID":"2018-099AB","EPOCH":"2026-04-25T15:47:23.117280","MEAN_MOTION":14.9977352,"ECCENTRICITY":0.0003913,"INCLINATION":97.4371,"RA_OF_ASC_NODE":149.961,"ARG_OF_PERICENTER":197.2393,"MEAN_ANOMALY":162.8698,"EPHEMERIS_TYPE":0,"CLASSIFICATION_TYPE":"U","NORAD_CAT_ID":43783,"ELEMENT_SET_NO":999,"REV_AT_EPOCH":40343,"BSTAR":6.8816e-5,"MEAN_MOTION_DOT":7.95e-6,"MEAN_MOTION_DDOT":0},{"OBJECT_NAME":"SAUDISAT 5A","OBJECT_ID":"2018-102A","EPOCH":"2026-04-25T19:58:50.908224","MEAN_MOTION":15.27502105,"ECCENTRICITY":0.0008533,"INCLINATION":97.3108,"RA_OF_ASC_NODE":178.433,"ARG_OF_PERICENTER":327.8089,"MEAN_ANOMALY":32.2628,"EPHEMERIS_TYPE":0,"CLASSIFICATION_TYPE":"U","NORAD_CAT_ID":43831,"ELEMENT_SET_NO":999,"REV_AT_EPOCH":40768,"BSTAR":0.00021229,"MEAN_MOTION_DOT":5.644e-5,"MEAN_MOTION_DDOT":0},{"OBJECT_NAME":"SAUDISAT 5B","OBJECT_ID":"2018-102C","EPOCH":"2026-04-25T20:39:22.521312","MEAN_MOTION":15.27787409,"ECCENTRICITY":0.0009304,"INCLINATION":97.3209,"RA_OF_ASC_NODE":181.4356,"ARG_OF_PERICENTER":329.7994,"MEAN_ANOMALY":30.2708,"EPHEMERIS_TYPE":0,"CLASSIFICATION_TYPE":"U","NORAD_CAT_ID":43833,"ELEMENT_SET_NO":999,"REV_AT_EPOCH":40780,"BSTAR":0.00020559,"MEAN_MOTION_DOT":5.512e-5,"MEAN_MOTION_DDOT":0},{"OBJECT_NAME":"GAOFEN-10R","OBJECT_ID":"2019-066A","EPOCH":"2026-04-25T20:42:46.471968","MEAN_MOTION":14.82938911,"ECCENTRICITY":0.0004628,"INCLINATION":98.0463,"RA_OF_ASC_NODE":69.0774,"ARG_OF_PERICENTER":320.2902,"MEAN_ANOMALY":39.7972,"EPHEMERIS_TYPE":0,"CLASSIFICATION_TYPE":"U","NORAD_CAT_ID":44622,"ELEMENT_SET_NO":999,"REV_AT_EPOCH":35462,"BSTAR":0.00013926,"MEAN_MOTION_DOT":1.075e-5,"MEAN_MOTION_DDOT":0},{"OBJECT_NAME":"CARTOSAT-3","OBJECT_ID":"2019-081A","EPOCH":"2026-04-25T19:05:50.169120","MEAN_MOTION":15.1927685,"ECCENTRICITY":0.0011275,"INCLINATION":97.4337,"RA_OF_ASC_NODE":178.4931,"ARG_OF_PERICENTER":340.799,"MEAN_ANOMALY":19.2818,"EPHEMERIS_TYPE":0,"CLASSIFICATION_TYPE":"U","NORAD_CAT_ID":44804,"ELEMENT_SET_NO":999,"REV_AT_EPOCH":35551,"BSTAR":0.00010961,"MEAN_MOTION_DOT":2.246e-5,"MEAN_MOTION_DDOT":0},{"OBJECT_NAME":"GAOFEN-12 01","OBJECT_ID":"2019-082A","EPOCH":"2026-04-25T20:00:11.452896","MEAN_MOTION":14.80414073,"ECCENTRICITY":0.0001414,"INCLINATION":97.8126,"RA_OF_ASC_NODE":123.5939,"ARG_OF_PERICENTER":128.2182,"MEAN_ANOMALY":231.9157,"EPHEMERIS_TYPE":0,"CLASSIFICATION_TYPE":"U","NORAD_CAT_ID":44819,"ELEMENT_SET_NO":999,"REV_AT_EPOCH":34634,"BSTAR":5.1698e-5,"MEAN_MOTION_DOT":3.44e-6,"MEAN_MOTION_DDOT":0},{"OBJECT_NAME":"CSG-1","OBJECT_ID":"2019-092A","EPOCH":"2026-04-25T19:09:25.077024","MEAN_MOTION":14.82153394,"ECCENTRICITY":0.00013,"INCLINATION":97.8887,"RA_OF_ASC_NODE":300.1584,"ARG_OF_PERICENTER":93.6778,"MEAN_ANOMALY":266.4584,"EPHEMERIS_TYPE":0,"CLASSIFICATION_TYPE":"U","NORAD_CAT_ID":44873,"ELEMENT_SET_NO":999,"REV_AT_EPOCH":34371,"BSTAR":5.4372e-5,"MEAN_MOTION_DOT":3.81e-6,"MEAN_MOTION_DDOT":0},{"OBJECT_NAME":"NEMO-HD","OBJECT_ID":"2020-061F","EPOCH":"2026-04-25T19:55:28.403040","MEAN_MOTION":15.43520342,"ECCENTRICITY":0.0001421,"INCLINATION":97.1961,"RA_OF_ASC_NODE":178.3428,"ARG_OF_PERICENTER":132.6546,"MEAN_ANOMALY":227.4822,"EPHEMERIS_TYPE":0,"CLASSIFICATION_TYPE":"U","NORAD_CAT_ID":46277,"ELEMENT_SET_NO":999,"REV_AT_EPOCH":31390,"BSTAR":0.00023854,"MEAN_MOTION_DOT":0.00010614,"MEAN_MOTION_DDOT":0},{"OBJECT_NAME":"SENTINEL-6A","OBJECT_ID":"2020-086A","EPOCH":"2026-04-25T18:35:27.384000","MEAN_MOTION":12.80930889,"ECCENTRICITY":0.0007786,"INCLINATION":66.0412,"RA_OF_ASC_NODE":243.912,"ARG_OF_PERICENTER":270.3074,"MEAN_ANOMALY":89.7049,"EPHEMERIS_TYPE":0,"CLASSIFICATION_TYPE":"U","NORAD_CAT_ID":46984,"ELEMENT_SET_NO":999,"REV_AT_EPOCH":25361,"BSTAR":6.7827e-6,"MEAN_MOTION_DOT":-5.9e-7,"MEAN_MOTION_DDOT":0},{"OBJECT_NAME":"GAOFEN-12 02","OBJECT_ID":"2021-026A","EPOCH":"2026-04-25T20:08:07.809792","MEAN_MOTION":14.80252319,"ECCENTRICITY":0.0005981,"INCLINATION":97.9927,"RA_OF_ASC_NODE":114.2368,"ARG_OF_PERICENTER":54.7147,"MEAN_ANOMALY":305.4624,"EPHEMERIS_TYPE":0,"CLASSIFICATION_TYPE":"U","NORAD_CAT_ID":48079,"ELEMENT_SET_NO":999,"REV_AT_EPOCH":27401,"BSTAR":5.2414e-5,"MEAN_MOTION_DOT":3.46e-6,"MEAN_MOTION_DDOT":0},{"OBJECT_NAME":"PLEIADES NEO 3","OBJECT_ID":"2021-034A","EPOCH":"2026-04-24T15:10:35.954976","MEAN_MOTION":14.81679396,"ECCENTRICITY":0.00013628,"INCLINATION":97.8934,"RA_OF_ASC_NODE":190.1682,"ARG_OF_PERICENTER":103.4295,"MEAN_ANOMALY":256.707,"EPHEMERIS_TYPE":0,"CLASSIFICATION_TYPE":"U","NORAD_CAT_ID":48268,"ELEMENT_SET_NO":999,"REV_AT_EPOCH":26972,"BSTAR":9.3708205e-5,"MEAN_MOTION_DOT":6.86e-6,"MEAN_MOTION_DDOT":0},{"OBJECT_NAME":"PLEIADES NEO 4","OBJECT_ID":"2021-073E","EPOCH":"2026-04-25T14:40:40.224288","MEAN_MOTION":14.81673986,"ECCENTRICITY":0.0001276,"INCLINATION":97.8923,"RA_OF_ASC_NODE":191.1293,"ARG_OF_PERICENTER":93.1075,"MEAN_ANOMALY":267.0284,"EPHEMERIS_TYPE":0,"CLASSIFICATION_TYPE":"U","NORAD_CAT_ID":49070,"ELEMENT_SET_NO":999,"REV_AT_EPOCH":25358,"BSTAR":-6.2253e-5,"MEAN_MOTION_DOT":-5.42e-6,"MEAN_MOTION_DDOT":0},{"OBJECT_NAME":"LANDSAT 9","OBJECT_ID":"2021-088A","EPOCH":"2026-04-25T19:14:47.095008","MEAN_MOTION":14.5712025,"ECCENTRICITY":0.0001239,"INCLINATION":98.1873,"RA_OF_ASC_NODE":186.8084,"ARG_OF_PERICENTER":105.1694,"MEAN_ANOMALY":254.9641,"EPHEMERIS_TYPE":0,"CLASSIFICATION_TYPE":"U","NORAD_CAT_ID":49260,"ELEMENT_SET_NO":999,"REV_AT_EPOCH":24337,"BSTAR":8.4818e-5,"MEAN_MOTION_DOT":3.37e-6,"MEAN_MOTION_DDOT":0}]
